NOAA 15                 
1 25338U 98030A   17290.95139635  .00000034  00000-0  33298-4 0  9997
2 25338  98.7808 302.1004 0010076 205.3426 154.7261 14.25821139 10248
METEOSAT-8 (MSG-1)      
1 27509U 02040B   17290.65804653  .00000122  00000-0  00000-0 0  9990
2 27509   5.0515  57.8375 0000716 301.5235 305.3515  1.00265067 55525
KALPANA-1 (METSAT 1)    
1 27525U 02043A   17290.87367325 -.00000095  00000-0  00000-0 0  9995
2 27525   6.5493  54.4244 0014620 225.4211 134.4764  1.00271047 55330
NOAA 18                 
1 28654U 05018A   17290.89673189  .00000001  00000-0  25989-4 0  9997
2 28654  99.1748 316.0650 0015300  88.2791 272.0132 14.12353109639486
METEOSAT-9 (MSG-2)      
1 28912U 05049B   17290.79004442  .00000041  00000-0  00000-0 0  9994
2 28912   2.4386  71.3737 0001428 239.5897   9.1826  1.00272010 43302
HIMAWARI-7 (MTSAT-2)    
1 28937U 06004A   17290.88763663 -.00000264  00000-0  00000-0 0  9998
2 28937   0.0806  82.8038 0003772 129.7117 278.6747  1.00274003 42757
FORMOSAT-3 FM6          
1 29047U 06011A   17291.14635493  .00000047  00000-0  34888-4 0  9991
2 29047  71.9780 296.2921 0052734 299.0639  60.5220 14.28604183602321
FORMOSAT-3 FM1          
1 29048U 06011B   17290.78060197  .00000069  00000-0  43852-4 0  9999
2 29048  71.9677 209.0549 0045925 257.5573 102.0422 14.28539888604759
FORMOSAT-3 FM5          
1 29049U 06011C   17290.69296087  .00000102  00000-0  56724-4 0  9999
2 29049  72.0224  15.3833 0037070 291.7396  67.9796 14.28594782600527
FORMOSAT-3 FM3          
1 29050U 06011D   17290.44205753  .00000262  00000-0  65769-4 0  9990
2 29050  72.0150 261.2487 0052280 293.7189  65.8484 14.58569945614393
FORMOSAT-3 FM4          
1 29051U 06011E   17290.50229890  .00000092  00000-0  51588-4 0  9991
2 29051  72.0044 279.6263 0067975 170.8491 189.3903 14.28620618603083
FORMOSAT-3 FM2          
1 29052U 06011F   17290.56815654  .00000085  00000-0  49533-4 0  9996
2 29052  72.0360 350.8097 0042319 255.8437 103.7995 14.28715744601412
GOES 13                 
1 29155U 06018A   17290.13525206 -.00000275  00000-0  00000-0 0  9995
2 29155   0.1068 106.3802 0001914 359.8586 253.8012  1.00273552 11657
METOP-A                 
1 29499U 06044A   17290.91827699  .00000012  00000-0  25227-4 0  9992
2 29499  98.6643 348.3948 0001503 139.1195 332.1835 14.21511466570398
FENGYUN 2D              
1 29640U 06053A   17290.88380171 -.00000378  00000-0  10000-3 0  9993
2 29640   4.6733  63.7606 0007502 308.6190  96.2577  1.00272795 39837
FENGYUN 3A              
1 32958U 08026A   17291.20011373 -.00000002  00000-0  18323-4 0  9994
2 32958  98.3999 313.6829 0008428 286.5832  73.4421 14.19677232486780
FENGYUN 2E              
1 33463U 08066A   17290.67989345 -.00000222  00000-0  00000-0 0  9996
2 33463   2.4100  67.8979 0005883 219.0273  70.9204  1.00268417 32356
NOAA 19                 
1 33591U 09005A   17290.91113331  .00000105  00000-0  82177-4 0  9991
2 33591  99.1087 259.5712 0013065 289.3299  70.6459 14.12220617447715
GOES 14                 
1 35491U 09033A   17290.21765494 -.00000118  00000-0  00000-0 0  9995
2 35491   0.2918 274.6773 0010535 309.1348 136.1232  1.00272647 30428
METEOR-M 1              
1 35865U 09049A   17291.16327329  .00000019  00000-0  27390-4 0  9997
2 35865  98.4170 307.3431 0003161 131.5217 228.6233 14.22122630419586
GOES 15                 
1 36411U 10008A   17290.30348440  .00000064  00000-0  00000-0 0  9999
2 36411   0.2655 274.7902 0004577 278.6008 166.6158  1.00277990 27951
COMS 1                  
1 36744U 10032A   17290.73405470 -.00000367  00000-0  00000-0 0  9996
2 36744   0.0458  99.5098 0000832 167.4475 151.9570  1.00271737 19354
FENGYUN 3B              
1 37214U 10059A   17291.14375566  .00000019  00000-0  32524-4 0  9999
2 37214  98.9102 249.9632 0017280 145.9118 214.3175 14.15863724359944
SUOMI NPP               
1 37849U 11061A   17290.94146323  .00000012  00000-0  26394-4 0  9992
2 37849  98.7102 227.9647 0001407 106.6378 319.9193 14.19549676309515
FENGYUN 2F              
1 38049U 12002A   17290.88364418 -.00000376  00000-0  00000+0 0  9996
2 38049   1.9640  78.1648 0003955 228.6904 149.3895  1.00262399 21164
METEOSAT-10 (MSG-3)     
1 38552U 12035B   17289.92912361 -.00000031  00000-0  00000-0 0  9999
2 38552   0.8381   7.5659 0001263 233.4079 119.0320  1.00266619 19150
METOP-B                 
1 38771U 12049A   17291.15126985  .00000018  00000-0  28196-4 0  9998
2 38771  98.7093 349.3489 0000315 189.8572 196.6306 14.21490182263748
FENGYUN 3C              
1 39260U 13052A   17291.17817192 -.00000030  00000-0  59341-5 0  9998
2 39260  98.6368 357.9647 0001395  59.2201 300.9117 14.19657855210836
METEOR-M 2              
1 40069U 14037A   17290.64112590 -.00000043  00000-0  15454-6 0  9994
2 40069  98.6408 342.7353 0004787 212.0041 148.0847 14.20645624169944
HIMAWARI-8              
1 40267U 14060A   17290.53640968 -.00000299  00000-0  00000-0 0  9991
2 40267   0.0252 103.6204 0000809 104.7038 151.6908  1.00272737 11029
FENGYUN 2G              
1 40367U 14090A   17290.78294153 -.00000351  00000-0  00000-0 0  9992
2 40367   0.2177 228.5148 0003497  47.0693 137.1930  1.00262397 10310
METEOSAT-11 (MSG-4)     
1 40732U 15034A   17290.58500300 -.00000053  00000-0  00000-0 0  9998
2 40732   1.6233 233.5909 0001312  23.2092 336.5096  1.00272970  8311
ELEKTRO-L 2             
1 41105U 15074A   17290.76646362 -.00000120  00000-0  00000-0 0  9991
2 41105   0.0560 311.1854 0003111 311.5387 115.6307  1.00272218  6799
HIMAWARI-9              
1 41836U 16064A   17290.53615960 -.00000299  00000-0  00000+0 0  9993
2 41836   0.0082 232.0595 0000761   8.4292 119.5037  1.00265865  3573
GOES 16                 
1 41866U 16071A   17290.17615652 -.00000208  00000-0  00000+0 0  9992
2 41866   0.0014 354.6498 0000965 280.3660  84.9731  1.00269947  3379
FENGYUN 4A              
1 41882U 16077A   17290.78294153 -.00000353  00000-0  00000-0 0  9994
2 41882   0.1951 281.4499 0005679 200.5313 290.9641  1.00267206  3254
CYGFM05                 
1 41884U 16078A   17290.55191699  .00000656  00000-0  37288-4 0  9990
2 41884  34.9575 346.1098 0016525 352.0889   7.9559 15.13727289 46397
CYGFM04                 
1 41885U 16078B   17290.53515033  .00000650  00000-0  36501-4 0  9992
2 41885  34.9507 344.8653 0014891 352.1658   7.8819 15.14188251 46405
CYGFM02                 
1 41886U 16078C   17290.49783017  .00000654  00000-0  36861-4 0  9990
2 41886  34.9599 345.7189 0015614 350.9533   9.0895 15.14047767 46395
CYGFM01                 
1 41887U 16078D   17290.55955931  .00000652  00000-0  37104-4 0  9993
2 41887  34.9542 346.0984 0016912 353.0145   7.0329 15.13709299 46390
CYGFM08                 
1 41888U 16078E   17290.52697464  .00000651  00000-0  36818-4 0  9995
2 41888  34.9513 345.7637 0016029 352.7741   7.2737 15.13915961 46386
CYGFM06                 
1 41889U 16078F   17290.50968313  .00000954  00000-0  52582-4 0  9990
2 41889  34.9593 344.8500 0014340 350.1688   9.8741 15.14318649 46395
CYGFM07                 
1 41890U 16078G   17290.55652782  .00000685  00000-0  38185-4 0  9991
2 41890  34.9531 344.1439 0014094 351.7614   8.2864 15.14386323 46400
CYGFM03                 
1 41891U 16078H   17290.55106292  .00000685  00000-0  38162-4 0  9997
2 41891  34.9563 344.1719 0013607 351.3911   8.6566 15.14390162 46401
